NAVSTAR 77 (USA 289)    
1 43873U 18109A   23283.05230309  .00000052  00000+0  00000+0 0  9999
2 43873  55.2042 130.9533 0026319 189.8598 345.9337  2.00570303 35392
